start=new Date('2021-12-16T00:00:00.000Z').valueOf();
sats=[{"REV_AT_EPOCH":"371","TLE_LINE2":"2 47420  97.4755  52.3399 0003943 207.0028 247.6775 15.89736384  3718","ELEMENT_SET_NO":"999","OBJECT_ID":"2021-006H","MEAN_MOTION":"15.89736384","MEAN_ANOMALY":"247.6775","TLE_LINE1":"1 47420U 21006H   21349.91668981 -.00025615  25192-5 -84719-4 0  9991","APOAPSIS":"305.658","PERIAPSIS":"300.389","TIME_SYSTEM":"UTC","RA_OF_ASC_NODE":"52.3399","ARG_OF_PERICENTER":"207.0028","ECCENTRICITY":"0.00039430","DECAY_DATE":null,"MEAN_ELEMENT_THEORY":"SGP4","MEAN_MOTION_DDOT":"0.0000025192000","SEMIMAJOR_AXIS":"6681.158","SITE":"AFETR","NORAD_CAT_ID":"47420","PERIOD":"90.581","MEAN_MOTION_DOT":"-0.00025615","OBJECT_NAME":"STARLINK-2206","INCLINATION":"97.4755","CLASSIFICATION_TYPE":"U","EPHEMERIS_TYPE":"0","REF_FRAME":"TEME","CENTER_NAME":"EARTH","FILE":"3241542","BSTAR":"-0.00008471900000","COUNTRY_CODE":"US","EPOCH":"2021-12-15T22:00:01.999584","LAUNCH_DATE":"2021-01-24","OBJECT_TYPE":"PAYLOAD","RCS_SIZE":"LARGE","GP_ID":"191798606"},{"TLE_LINE1":"1 47421U 21006J   21349.91668981 -.00066131  37524-5 -22278-3 0  9993","MEAN_ANOMALY":"299.8051","MEAN_MOTION":"15.89725711","APOAPSIS":"305.620","PERIAPSIS":"300.486","TIME_SYSTEM":"UTC","RA_OF_ASC_NODE":"52.2122","REV_AT_EPOCH":"371","ELEMENT_SET_NO":"999","TLE_LINE2":"2 47421  97.4757  52.2122 0003842 209.3349 299.8051 15.89725711  3711","OBJECT_ID":"2021-006J","SITE":"AFETR","SEMIMAJOR_AXIS":"6681.188","ARG_OF_PERICENTER":"209.3349","MEAN_ELEMENT_THEORY":"SGP4","ECCENTRICITY":"0.00038420","DECAY_DATE":null,"MEAN_MOTION_DDOT":"0.0000037524000","REF_FRAME":"TEME","CENTER_NAME":"EARTH","OBJECT_NAME":"STARLINK-2207","PERIOD":"90.582","MEAN_MOTION_DOT":"-0.00066131","NORAD_CAT_ID":"47421","INCLINATION":"97.4757","CLASSIFICATION_TYPE":"U","EPHEMERIS_TYPE":"0","GP_ID":"191799356","FILE":"3241542","BSTAR":"-0.00022278000000","COUNTRY_CODE":"US","LAUNCH_DATE":"2021-01-24","EPOCH":"2021-12-15T22:00:01.999584","RCS_SIZE":"LARGE","OBJECT_TYPE":"PAYLOAD"},{"CENTER_NAME":"EARTH","REF_FRAME":"TEME","EPHEMERIS_TYPE":"0","CLASSIFICATION_TYPE":"U","INCLINATION":"97.4973","PERIOD":"92.034","MEAN_MOTION_DOT":"0.00663003","NORAD_CAT_ID":"47422","OBJECT_NAME":"STARLINK-2208","GP_ID":"191797605","OBJECT_TYPE":"PAYLOAD","RCS_SIZE":"LARGE","EPOCH":"2021-12-15T22:00:01.999584","LAUNCH_DATE":"2021-01-24","FILE":"3241542","BSTAR":"0.00633700000000","COUNTRY_CODE":"US","RA_OF_ASC_NODE":"50.4610","TIME_SYSTEM":"UTC","PERIAPSIS":"373.280","APOAPSIS":"375.326","MEAN_MOTION":"15.64630852","MEAN_ANOMALY":"80.0506","TLE_LINE1":"1 47422U 21006K   21349.91668981  .00663003  00000-0  63370-2 0  9994","OBJECT_ID":"2021-006K","ELEMENT_SET_NO":"999","TLE_LINE2":"2 47422  97.4973  50.4610 0001515 217.5985  80.0506 15.64630852  3658","REV_AT_EPOCH":"365","SEMIMAJOR_AXIS":"6752.438","SITE":"AFETR","MEAN_MOTION_DDOT":"0.0000000000000","ECCENTRICITY":"0.00015150","DECAY_DATE":null,"MEAN_ELEMENT_THEORY":"SGP4","ARG_OF_PERICENTER":"217.5985"},{"SEMIMAJOR_AXIS":"6925.328","SITE":"AFETR","ECCENTRICITY":"0.00017370","DECAY_DATE":null,"MEAN_ELEMENT_THEORY":"SGP4","MEAN_MOTION_DDOT":"0.0000000000000","ARG_OF_PERICENTER":"99.3283","PERIAPSIS":"545.990","RA_OF_ASC_NODE":"106.9340","TIME_SYSTEM":"UTC","MEAN_MOTION":"15.06406863","MEAN_ANOMALY":"260.7902","TLE_LINE1":"1 47548U 21009A   21349.79462827  .00001610  00000-0  12692-3 0  9995","APOAPSIS":"548.395","TLE_LINE2":"2 47548  53.0564 106.9340 0001737  99.3283 260.7902 15.06406863 48083","ELEMENT_SET_NO":"999","OBJECT_ID":"2021-009A","REV_AT_EPOCH":"4808","GP_ID":"191798622","OBJECT_TYPE":"PAYLOAD","RCS_SIZE":"LARGE","FILE":"3241542","COUNTRY_CODE":"US","BSTAR":"0.00012692000000","EPOCH":"2021-12-15T19:04:15.882528","LAUNCH_DATE":"2021-02-04","CENTER_NAME":"EARTH","REF_FRAME":"TEME","CLASSIFICATION_TYPE":"U","EPHEMERIS_TYPE":"0","PERIOD":"95.592","MEAN_MOTION_DOT":"0.00001610","NORAD_CAT_ID":"47548","OBJECT_NAME":"STARLINK-1782","INCLINATION":"53.0564"},{"PERIAPSIS":"546.064","TIME_SYSTEM":"UTC","RA_OF_ASC_NODE":"106.9376","TLE_LINE1":"1 47549U 21009B   21349.79094326  .00001710  00000-0  13368-3 0  9993","MEAN_ANOMALY":"262.5229","MEAN_MOTION":"15.06405944","APOAPSIS":"548.326","TLE_LINE2":"2 47549  53.0557 106.9376 0001633  97.5946 262.5229 15.06405944 48087","ELEMENT_SET_NO":"999","OBJECT_ID":"2021-009B","REV_AT_EPOCH":"4808","SITE":"AFETR","SEMIMAJOR_AXIS":"6925.330","MEAN_ELEMENT_THEORY":"SGP4","ECCENTRICITY":"0.00016330","DECAY_DATE":null,"MEAN_MOTION_DDOT":"0.0000000000000","ARG_OF_PERICENTER":"97.5946","CENTER_NAME":"EARTH","REF_FRAME":"TEME","CLASSIFICATION_TYPE":"U","EPHEMERIS_TYPE":"0","OBJECT_NAME":"STARLINK-1806","PERIOD":"95.592","NORAD_CAT_ID":"47549","MEAN_MOTION_DOT":"0.00001710","INCLINATION":"53.0557","GP_ID":"191799372","RCS_SIZE":"LARGE","OBJECT_TYPE":"PAYLOAD","FILE":"3241542","BSTAR":"0.00013368000000","COUNTRY_CODE":"US","LAUNCH_DATE":"2021-02-04","EPOCH":"2021-12-15T18:58:57.497664"},{"GP_ID":"191797621","BSTAR":"-0.00001340900000","FILE":"3241542","COUNTRY_CODE":"US","EPOCH":"2021-12-15T16:05:08.526912","LAUNCH_DATE":"2021-02-04","OBJECT_TYPE":"PAYLOAD","RCS_SIZE":"LARGE","REF_FRAME":"TEME","CENTER_NAME":"EARTH","NORAD_CAT_ID":"47550","PERIOD":"95.593","MEAN_MOTION_DOT":"-0.00000481","OBJECT_NAME":"STARLINK-1909","INCLINATION":"53.0571","CLASSIFICATION_TYPE":"U","EPHEMERIS_TYPE":"0","SEMIMAJOR_AXIS":"6925.368","SITE":"AFETR","ARG_OF_PERICENTER":"98.6623","DECAY_DATE":null,"ECCENTRICITY":"0.00014330","MEAN_ELEMENT_THEORY":"SGP4","MEAN_MOTION_DDOT":"0.0000000000000","MEAN_MOTION":"15.06393550","TLE_LINE1":"1 47550U 21009C   21349.67023758 -.00000481  00000-0 -13409-4 0  9996","MEAN_ANOMALY":"261.4529","APOAPSIS":"548.226","PERIAPSIS":"546.241","RA_OF_ASC_NODE":"97.4856","TIME_SYSTEM":"UTC","REV_AT_EPOCH":"4820","ELEMENT_SET_NO":"999","TLE_LINE2":"2 47550  53.0571  97.4856 0001433  98.6623 261.4529 15.06393550 48208","OBJECT_ID":"2021-009C"},{"CLASSIFICATION_TYPE":"U","EPHEMERIS_TYPE":"0","NORAD_CAT_ID":"47551","PERIOD":"95.591","MEAN_MOTION_DOT":"0.00001437","OBJECT_NAME":"STARLINK-1938","INCLINATION":"53.0555","CENTER_NAME":"EARTH","REF_FRAME":"TEME","OBJECT_TYPE":"PAYLOAD","RCS_SIZE":"LARGE","COUNTRY_CODE":"US","FILE":"3241542","BSTAR":"0.00011530000000","EPOCH":"2021-12-15T20:43:47.585280","LAUNCH_DATE":"2021-02-04","GP_ID":"191797871","TLE_LINE2":"2 47551  53.0555 116.6060 0001647  98.0000 262.1176 15.06411182 47951","ELEMENT_SET_NO":"999","OBJECT_ID":"2021-009D","REV_AT_EPOCH":"4795","PERIAPSIS":"546.039","TIME_SYSTEM":"UTC","RA_OF_ASC_NODE":"116.6060","MEAN_MOTION":"15.06411182","TLE_LINE1":"1 47551U 21009D   21349.86374520  .00001437  00000-0  11530-3 0  9996","MEAN_ANOMALY":"262.1176","APOAPSIS":"548.320","ECCENTRICITY":"0.00016470","DECAY_DATE":null,"MEAN_ELEMENT_THEORY":"SGP4","MEAN_MOTION_DDOT":"0.0000000000000","ARG_OF_PERICENTER":"98.0000","SITE":"AFETR","SEMIMAJOR_AXIS":"6925.314"},{"RCS_SIZE":"LARGE","OBJECT_TYPE":"PAYLOAD","LAUNCH_DATE":"2021-02-04","EPOCH":"2021-12-15T17:39:20.157408","BSTAR":"0.00009051700000","FILE":"3241542","COUNTRY_CODE":"US","GP_ID":"191799122","EPHEMERIS_TYPE":"0","CLASSIFICATION_TYPE":"U","INCLINATION":"53.0548","OBJECT_NAME":"STARLINK-1940","MEAN_MOTION_DOT":"0.00001067","PERIOD":"95.592","NORAD_CAT_ID":"47552","CENTER_NAME":"EARTH","REF_FRAME":"TEME","MEAN_MOTION_DDOT":"0.0000000000000","MEAN_ELEMENT_THEORY":"SGP4","ECCENTRICITY":"0.00016390","DECAY_DATE":null,"ARG_OF_PERICENTER":"101.2097","SEMIMAJOR_AXIS":"6925.335","SITE":"AFETR","OBJECT_ID":"2021-009E","TLE_LINE2":"2 47552  53.0548 107.1905 0001639 101.2097 258.9076 15.06404535 48071","ELEMENT_SET_NO":"999","REV_AT_EPOCH":"4807","RA_OF_ASC_NODE":"107.1905","TIME_SYSTEM":"UTC","PERIAPSIS":"546.065","APOAPSIS":"548.335","MEAN_ANOMALY":"258.9076","TLE_LINE1":"1 47552U 21009E   21349.73564997  .00001067  00000-0  90517-4 0  9994","MEAN_MOTION":"15.06404535"},{"INCLINATION":"53.0591","OBJECT_NAME":"STARLINK-1951","MEAN_MOTION_DOT":"0.00604259","PERIOD":"94.159","NORAD_CAT_ID":"47553","EPHEMERIS_TYPE":"0","CLASSIFICATION_TYPE":"U","REF_FRAME":"TEME","CENTER_NAME":"EARTH","LAUNCH_DATE":"2021-02-04","EPOCH":"2021-12-15T14:23:12.155136","COUNTRY_CODE":"US","FILE":"3241542","BSTAR":"0.01956400000000","RCS_SIZE":"LARGE","OBJECT_TYPE":"PAYLOAD","GP_ID":"191798873","REV_AT_EPOCH":"4808","OBJECT_ID":"2021-009F","ELEMENT_SET_NO":"999","TLE_LINE2":"2 47553  53.0591 105.8213 0001994  56.2459 303.8730 15.29320716 48083","APOAPSIS":"479.211","TLE_LINE1":"1 47553U 21009F   21349.59944624  .00604259  00000-0  19564-1 0  9990","MEAN_ANOMALY":"303.8730","MEAN_MOTION":"15.29320716","RA_OF_ASC_NODE":"105.8213","TIME_SYSTEM":"UTC","PERIAPSIS":"476.477","ARG_OF_PERICENTER":"56.2459","MEAN_MOTION_DDOT":"0.0000000000000","MEAN_ELEMENT_THEORY":"SGP4","DECAY_DATE":null,"ECCENTRICITY":"0.00019940","SEMIMAJOR_AXIS":"6855.979","SITE":"AFETR"},{"REF_FRAME":"TEME","CENTER_NAME":"EARTH","INCLINATION":"53.0558","MEAN_MOTION_DOT":"0.00001357","PERIOD":"95.591","NORAD_CAT_ID":"47554","OBJECT_NAME":"STARLINK-1953","EPHEMERIS_TYPE":"0","CLASSIFICATION_TYPE":"U","GP_ID":"191798121","EPOCH":"2021-12-15T17:47:19.330944","LAUNCH_DATE":"2021-02-04","BSTAR":"0.00011000000000","FILE":"3241542","COUNTRY_CODE":"US","OBJECT_TYPE":"PAYLOAD","RCS_SIZE":"LARGE","APOAPSIS":"550.155","MEAN_MOTION":"15.06414232","TLE_LINE1":"1 47554U 21009G   21349.74119596  .00001357  00000-0  11000-3 0  9999","MEAN_ANOMALY":"215.9502","TIME_SYSTEM":"UTC","RA_OF_ASC_NODE":"127.1594","PERIAPSIS":"544.185","REV_AT_EPOCH":"4779","OBJECT_ID":"2021-009G","TLE_LINE2":"2 47554  53.0558 127.1594 0004310 144.1776 215.9502 15.06414232 47799","ELEMENT_SET_NO":"999","SEMIMAJOR_AXIS":"6925.305","SITE":"AFETR","ARG_OF_PERICENTER":"144.1776","MEAN_MOTION_DDOT":"0.0000000000000","DECAY_DATE":null,"ECCENTRICITY":"0.00043100","MEAN_ELEMENT_THEORY":"SGP4"}];
